[{"OBJECT_NAME":"STARLINK-34748","OBJECT_ID":"2025-152G","EPOCH":"2026-03-09T13:53:52.242432","MEAN_MOTION":15.05633159,"ECCENTRICITY":0.0003972,"INCLINATION":97.5998,"RA_OF_ASC_NODE":285.4411,"ARG_OF_PERICENTER":100.2475,"MEAN_ANOMALY":259.92,"EPHEMERIS_TYPE":0,"CLASSIFICATION_TYPE":"U","NORAD_CAT_ID":64848,"ELEMENT_SET_NO":999,"REV_AT_EPOCH":3540,"BSTAR":-7.612e-7,"MEAN_MOTION_DOT":-7.2e-7,"MEAN_MOTION_DDOT":0},{"OBJECT_NAME":"COSMOS 397 DEB","OBJECT_ID":"1971-015J","EPOCH":"2026-03-09T12:26:21.320448","MEAN_MOTION":13.66691871,"ECCENTRICITY":0.06349866,"INCLINATION":65.7052,"RA_OF_ASC_NODE":108.9757,"ARG_OF_PERICENTER":11.0561,"MEAN_ANOMALY":350.3721,"EPHEMERIS_TYPE":0,"CLASSIFICATION_TYPE":"U","NORAD_CAT_ID":5015,"ELEMENT_SET_NO":999,"REV_AT_EPOCH":65116,"BSTAR":0.00097635952,"MEAN_MOTION_DOT":3.3e-5,"MEAN_MOTION_DDOT":0}]
